{"fetched_at":"2026-07-06T08:47:00.511Z","source":"https://celestrak.org/NORAD/elements/gp.php?NAME=GHGSAT&FORMAT=JSON","constellation":"ghgsat","records":[{"OBJECT_NAME":"GHGSAT-C1","OBJECT_ID":"2020-061G","EPOCH":"2026-07-05T14:56:54.369600","CLASSIFICATION_TYPE":"U","MEAN_MOTION":15.72857821,"ECCENTRICITY":0.0000332,"INCLINATION":97.2091,"RA_OF_ASC_NODE":272.3706,"ARG_OF_PERICENTER":147.3944,"MEAN_ANOMALY":212.7341,"EPHEMERIS_TYPE":0,"NORAD_CAT_ID":46278,"ELEMENT_SET_NO":999,"REV_AT_EPOCH":32637,"BSTAR":0.00034624381,"MEAN_MOTION_DOT":0.0004687,"MEAN_MOTION_DDOT":0},{"OBJECT_NAME":"GHGSAT-C2","OBJECT_ID":"2021-006DA","EPOCH":"2026-07-05T13:31:03.880704","CLASSIFICATION_TYPE":"U","MEAN_MOTION":15.38026496,"ECCENTRICITY":0.00068806,"INCLINATION":97.2135,"RA_OF_ASC_NODE":233.5132,"ARG_OF_PERICENTER":101.1552,"MEAN_ANOMALY":259.0467,"EPHEMERIS_TYPE":0,"NORAD_CAT_ID":47509,"ELEMENT_SET_NO":999,"REV_AT_EPOCH":30267,"BSTAR":0.00023724059,"MEAN_MOTION_DOT":0.00008803,"MEAN_MOTION_DDOT":0},{"OBJECT_NAME":"GHGSAT-C3","OBJECT_ID":"2022-057F","EPOCH":"2026-07-05T13:31:27.439392","CLASSIFICATION_TYPE":"U","MEAN_MOTION":15.34592074,"ECCENTRICITY":0.00070375,"INCLINATION":97.6625,"RA_OF_ASC_NODE":332.9127,"ARG_OF_PERICENTER":64.641,"MEAN_ANOMALY":295.556,"EPHEMERIS_TYPE":0,"NORAD_CAT_ID":52737,"ELEMENT_SET_NO":999,"REV_AT_EPOCH":22835,"BSTAR":0.00023514655,"MEAN_MOTION_DOT":0.00007802,"MEAN_MOTION_DDOT":0},{"OBJECT_NAME":"GHGSAT-C5","OBJECT_ID":"2022-057N","EPOCH":"2026-07-05T16:01:48.509184","CLASSIFICATION_TYPE":"U","MEAN_MOTION":15.34570971,"ECCENTRICITY":0.00076345,"INCLINATION":97.6711,"RA_OF_ASC_NODE":334.6167,"ARG_OF_PERICENTER":61.4212,"MEAN_ANOMALY":298.7797,"EPHEMERIS_TYPE":0,"NORAD_CAT_ID":52744,"ELEMENT_SET_NO":999,"REV_AT_EPOCH":22837,"BSTAR":0.00022417527,"MEAN_MOTION_DOT":0.0000743,"MEAN_MOTION_DDOT":0},{"OBJECT_NAME":"GHGSAT-C4","OBJECT_ID":"2022-057Q","EPOCH":"2026-07-05T15:35:05.004672","CLASSIFICATION_TYPE":"U","MEAN_MOTION":15.3458095,"ECCENTRICITY":0.00069818,"INCLINATION":97.6551,"RA_OF_ASC_NODE":331.8146,"ARG_OF_PERICENTER":50.2008,"MEAN_ANOMALY":309.9848,"EPHEMERIS_TYPE":0,"NORAD_CAT_ID":52746,"ELEMENT_SET_NO":999,"REV_AT_EPOCH":22837,"BSTAR":0.0002250673,"MEAN_MOTION_DOT":0.00007461,"MEAN_MOTION_DDOT":0},{"OBJECT_NAME":"GHGSAT-C8","OBJECT_ID":"2023-054J","EPOCH":"2026-07-05T14:04:06.523968","CLASSIFICATION_TYPE":"U","MEAN_MOTION":15.53547671,"ECCENTRICITY":0.00043852,"INCLINATION":97.2963,"RA_OF_ASC_NODE":96.1276,"ARG_OF_PERICENTER":34.4454,"MEAN_ANOMALY":325.7083,"EPHEMERIS_TYPE":0,"NORAD_CAT_ID":56186,"ELEMENT_SET_NO":999,"REV_AT_EPOCH":18129,"BSTAR":0.00028732545,"MEAN_MOTION_DOT":0.00018196,"MEAN_MOTION_DDOT":0},{"OBJECT_NAME":"GHGSAT-C6","OBJECT_ID":"2023-054AC","EPOCH":"2026-07-05T14:48:00.531648","CLASSIFICATION_TYPE":"U","MEAN_MOTION":15.53529018,"ECCENTRICITY":0.0004592,"INCLINATION":97.3025,"RA_OF_ASC_NODE":96.8537,"ARG_OF_PERICENTER":355.3322,"MEAN_ANOMALY":4.7888,"EPHEMERIS_TYPE":0,"NORAD_CAT_ID":56204,"ELEMENT_SET_NO":999,"REV_AT_EPOCH":18131,"BSTAR":0.00027927916,"MEAN_MOTION_DOT":0.00017671,"MEAN_MOTION_DDOT":0},{"OBJECT_NAME":"GHGSAT-C7","OBJECT_ID":"2023-054AH","EPOCH":"2026-07-05T14:16:58.901952","CLASSIFICATION_TYPE":"U","MEAN_MOTION":15.50295097,"ECCENTRICITY":0.00060349,"INCLINATION":97.2981,"RA_OF_ASC_NODE":95.2033,"ARG_OF_PERICENTER":346.5233,"MEAN_ANOMALY":13.5857,"EPHEMERIS_TYPE":0,"NORAD_CAT_ID":56209,"ELEMENT_SET_NO":999,"REV_AT_EPOCH":18124,"BSTAR":0.00022654681,"MEAN_MOTION_DOT":0.00012746,"MEAN_MOTION_DDOT":0},{"OBJECT_NAME":"GHGSAT-C13","OBJECT_ID":"2025-135W","EPOCH":"2026-07-05T08:11:57.649344","CLASSIFICATION_TYPE":"U","MEAN_MOTION":15.21327089,"ECCENTRICITY":0.0002231,"INCLINATION":97.4794,"RA_OF_ASC_NODE":301.5871,"ARG_OF_PERICENTER":78.3678,"MEAN_ANOMALY":281.7808,"EPHEMERIS_TYPE":0,"NORAD_CAT_ID":64548,"ELEMENT_SET_NO":999,"REV_AT_EPOCH":5761,"BSTAR":0.00042849,"MEAN_MOTION_DOT":0.00009528,"MEAN_MOTION_DDOT":0}]}
