GHGSAT-C1               
1 46278U 20061G   26186.62285150  .00046870  00000+0  34624-3 0  9994
2 46278  97.2091 272.3706 0000332 147.3944 212.7341 15.72857821326371
GHGSAT-C2               
1 47509U 21006DA  26186.56323936  .00008803  00000+0  23724-3 0  9993
2 47509  97.2135 233.5132 0006880 101.1552 259.0467 15.38026496302675
GHGSAT-C3               
1 52737U 22057F   26186.56351203  .00007802  00000+0  23515-3 0  9993
2 52737  97.6625 332.9127 0007037  64.6410 295.5560 15.34592074228358
GHGSAT-C5               
1 52744U 22057N   26186.66792256  .00007430  00000+0  22418-3 0  9997
2 52744  97.6711 334.6167 0007634  61.4212 298.7797 15.34570971228374
GHGSAT-C4               
1 52746U 22057Q   26186.64936348  .00007461  00000+0  22507-3 0  9992
2 52746  97.6551 331.8146 0006981  50.2008 309.9848 15.34580950228377
GHGSAT-C8               
1 56186U 23054J   26186.58618662  .00018196  00000+0  28733-3 0  9995
2 56186  97.2963  96.1276 0004385  34.4454 325.7083 15.53547671181292
GHGSAT-C6               
1 56204U 23054AC  26186.61667282  .00017671  00000+0  27928-3 0  9994
2 56204  97.3025  96.8537 0004592 355.3322   4.7888 15.53529018181314
GHGSAT-C7               
1 56209U 23054AH  26186.59512618  .00012746  00000+0  22655-3 0  9998
2 56209  97.2981  95.2033 0006034 346.5233  13.5857 15.50295097181249
GHGSAT-C13              
1 64548U 25135W   26186.34163946  .00009528  00000+0  42849-3 0  9995
2 64548  97.4794 301.5871 0002231  78.3678 281.7808 15.21327089 57612
